[{"OBJECT_NAME":"STARLINK-32303","OBJECT_ID":"2024-207A","EPOCH":"2026-03-09T22:59:18.443040","MEAN_MOTION":15.2760047,"ECCENTRICITY":3.743e-5,"INCLINATION":42.9966,"RA_OF_ASC_NODE":280.1797,"ARG_OF_PERICENTER":233.7502,"MEAN_ANOMALY":126.3315,"EPHEMERIS_TYPE":0,"CLASSIFICATION_TYPE":"U","NORAD_CAT_ID":61912,"ELEMENT_SET_NO":999,"REV_AT_EPOCH":7535,"BSTAR":0.0014940722,"MEAN_MOTION_DOT":0.00041107,"MEAN_MOTION_DDOT":0},{"OBJECT_NAME":"OBJECT L","OBJECT_ID":"2024-024L","EPOCH":"2026-03-09T22:36:05.522976","MEAN_MOTION":15.29373491,"ECCENTRICITY":0.00073185,"INCLINATION":97.3169,"RA_OF_ASC_NODE":137.7038,"ARG_OF_PERICENTER":167.6369,"MEAN_ANOMALY":192.5052,"EPHEMERIS_TYPE":0,"CLASSIFICATION_TYPE":"U","NORAD_CAT_ID":58927,"ELEMENT_SET_NO":999,"REV_AT_EPOCH":9318,"BSTAR":0.00043092344,"MEAN_MOTION_DOT":0.00012217,"MEAN_MOTION_DDOT":0}]
